satname,norad_id,inclination_deg,eccentricity,mean_motion_rev_per_day,perigee_km,apogee_km,l1,l2
STARLINK-1274,45387,53.0346,0.000529,15.32870505,463.6317899196838,470.87421254098626,1 45387U 20019AD  25336.83855206  .00078660  00000+0  24284-2 0  9993,2 45387  53.0346 201.0112 0005290  80.4786 279.6812 15.32870505315691
STARLINK-1280,45388,53.0527,0.001033,15.45535974,422.7710710422525,436.8362764742369,1 45388U 20019AE  25336.91670139  .00059529  00000+0  12173-2 0  9990,2 45388  53.0527 230.2097 0010330 105.2532 311.3440 15.45535974  5885
STARLINK-1283,45389,53.0513,0.0010127,15.34823319,454.5188910905608,468.3717811541419,1 45389U 20019AF  25336.81190407  .00077882  00000+0  22584-2 0  9994,2 45389  53.0513 212.0396 0010127 113.0737 247.1333 15.34823319315544
STARLINK-1284,45390,53.0547,0.000139,15.06411337,546.2141932641653,548.1394305038684,1 45390U 20019AG  25336.09022625  .00005736  00000+0  40352-3 0  9995,2 45390  53.0547 224.7631 0001390  90.6097 269.5052 15.06411337315296
STARLINK-1297,45395,53.053,0.0001309,15.06388426,546.3404980388032,548.1535635780701,1 45395U 20019AM  25336.85690715 -.00000898  00000+0 -41382-4 0  9996,2 45395  53.0530 221.3179 0001309  88.2095 271.9044 15.06388426314596
STARLINK-1307,45397,53.0546,0.0001533,15.06398462,546.1546150342247,548.2779283473255,1 45397U 20019AP  25336.84952515  .00000768  00000+0  70440-4 0  9997,2 45397  53.0546 221.3502 0001533  95.2466 264.8698 15.06398462315233
STARLINK-1255,45399,53.0476,0.0007817,15.34810611,456.13655885166736,466.8296209001801,1 45399U 20019AR  25336.82033235  .00079162  00000+0  22973-2 0  9996,2 45399  53.0476 203.0714 0007817 119.6985 240.4795 15.34810611315477
STARLINK-1260,45404,53.0528,0.0001542,15.0639647,546.154486485073,548.2902673169092,1 45404U 20019AW  25336.85044736  .00001520  00000+0  12093-3 0  9990,2 45404  53.0528 211.3434 0001542  92.3861 267.7304 15.06396470315268
STARLINK-1263,45405,53.0548,0.000149,15.06383848,546.2291776230641,548.2929462455204,1 45405U 20019AX  25336.83571997 -.00001430  00000+0 -77182-4 0  9996,2 45405  53.0548 211.4149 0001490  99.7859 260.3298 15.06383848315261
STARLINK-1265,45406,53.0538,0.0001504,15.06398022,546.1760468951434,548.2591935649098,1 45406U 20019AY  25336.84307955  .00002995  00000+0  21991-3 0  9990,2 45406  53.0538 211.3776 0001504 103.6036 256.5120 15.06398022315265
STARLINK-1278,45408,53.0538,0.0009205,15.37914129,445.9910044093158,458.5657991640064,1 45408U 20019BA  25336.44396456  .00078307  00000+0  20564-2 0  9996,2 45408  53.0538 234.4476 0009205  97.9139 262.2908 15.37914129314910
STARLINK-1296,45412,53.0544,0.0001588,15.06391388,546.1382030611958,548.337702146142,1 45412U 20019BE  25336.84676230  .00000108  00000+0  26185-4 0  9997,2 45412  53.0544 211.3607 0001588  90.4534 269.6637 15.06391388315266
STARLINK-1298,45413,53.0459,0.0008676,15.58454207,386.25634255929435,398.004110250552,1 45413U 20019BF  25336.83127323  .00141109  00000+0  17900-2 0  9991,2 45413  53.0459 176.2959 0008676  74.3146 285.8822 15.58454207315854
STARLINK-1309,45414,53.0538,0.0001575,15.06386764,546.1613758818421,548.342873456113,1 45414U 20019BG  25336.86150494  .00002073  00000+0  15805-3 0  9999,2 45414  53.0538 211.2991 0001575  94.3825 265.7344 15.06386764315251
STARLINK-1316,45415,53.0549,0.0001463,15.0639183,546.2234157673756,548.2497800821284,1 45415U 20019BH  25336.82096340  .00000470  00000+0  50451-4 0  9991,2 45415  53.0549 211.4785 0001463  96.6680 263.4476 15.06391830315281
STARLINK-1318,45416,53.0478,0.0004527,15.65107873,369.87232870798107,375.98474344434453,1 45416U 20019BJ  25336.79596313  .00105412  00000+0  10407-2 0  9990,2 45416  53.0478 166.3056 0004527 142.6004 217.5326 15.65107873315908
STARLINK-1286,45417,53.0541,0.0005709,15.39480754,443.7468774032204,451.5405538243085,1 45417U 20019BK  25336.82848562  .00057890  00000+0  14522-2 0  9999,2 45417  53.0541 232.6820 0005709  98.2144 261.9507 15.39480754315244
STARLINK-1308,45419,53.0555,0.000177,15.06389633,546.0175391637031,548.4691238010491,1 45419U 20019BM  25336.45696926  .00005626  00000+0  39641-3 0  9995,2 45419  53.0555 243.1117 0001770  97.1148 263.0043 15.06389633314811
STARLINK-1329,45531,53.0543,0.0001443,15.06397592,546.2196092594222,548.2182669831645,1 45531U 20025A   25336.82371931  .00001406  00000+0  11328-3 0  9998,2 45531  53.0543 181.4683 0001443  91.0601 269.0553 15.06397592310494
STARLINK-1338,45532,53.054,0.000152,15.06397601,546.1662564391145,548.2715646359175,1 45532U 20025B   25336.83478049  .00000248  00000+0  35573-4 0  9990,2 45532  53.0540 181.4148 0001520  92.5965 267.5198 15.06397601310492
STARLINK-1350,45535,53.0733,0.0001941,15.3328451,464.6922704402814,467.34917246774967,1 45535U 20025E   25336.69525419  .00016779  00000+0  52467-3 0  9997,2 45535  53.0733 127.7101 0001941 105.3992 254.7224 15.33284510311269
STARLINK-1362,45538,53.0531,0.0001466,15.06404086,546.1837807023503,548.2142892278025,1 45538U 20025H   25336.80063703  .00004802  00000+0  34099-3 0  9991,2 45538  53.0531 181.2882 0001466  89.5015 270.6142 15.06404086310492
STARLINK-1368,45540,53.0541,0.0001595,15.06396593,546.1174051617736,548.3265946827487,1 45540U 20025K   25336.87164228  .00001433  00000+0  11511-3 0  9996,2 45540  53.0541 181.2516 0001595  89.3075 270.8097 15.06396593310491
STARLINK-1371,45542,53.0529,0.0001805,15.06395588,545.9750522603754,548.4751079712969,1 45542U 20025M   25336.84215404  .00000365  00000+0  43397-4 0  9999,2 45542  53.0529 181.3807 0001805  93.7683 266.3513 15.06395588310497
STARLINK-1372,45543,53.0543,0.0001484,15.06393325,546.2042911654798,548.2597406894083,1 45543U 20025N   25336.81267020 -.00000106  00000+0  11776-4 0  9998,2 45543  53.0543 181.5174 0001484  92.7745 267.3414 15.06393325309580
STARLINK-1373,45544,53.0538,0.0001448,15.063948,546.2247024562757,548.2302880140951,1 45544U 20025P   25336.83110029  .00001142  00000+0  95552-4 0  9991,2 45544  53.0538 181.4309 0001448  90.3589 269.7566 15.06394800310499
STARLINK-1294,45551,53.0451,0.000333,15.65689672,369.00845307509735,373.5035488137264,1 45551U 20025W   25336.66443448  .00103123  00000+0  99535-3 0  9990,2 45551  53.0451 102.3876 0003330 151.8771 208.2424 15.65689672311592
STARLINK-1325,45554,53.0506,0.0006995,15.74359884,341.7494720605346,351.15717392240003,1 45554U 20025Z   25336.91670139  .00128652  00000+0  86185-3 0  9991,2 45554  53.0506  93.0046 0006995 336.5404   9.8625 15.74359884  6000
STARLINK-1327,45555,53.0535,0.0001518,15.06398286,546.1655423978709,548.268079814924,1 45555U 20025AA  25336.80344495  .00001158  00000+0  96610-4 0  9999,2 45555  53.0535 161.5562 0001518  89.6422 270.4741 15.06398286310769
STARLINK-1356,45564,53.0546,0.000142,15.06397611,546.2354793539316,548.2022804238204,1 45564U 20025AK  25336.80713563  .00000768  00000+0  70463-4 0  9999,2 45564  53.0546 161.5388 0001420  90.1581 269.9571 15.06397611310767
STARLINK-1357,45565,53.0578,0.0008227,15.37610354,447.55787447779494,458.7981201743951,1 45565U 20025AL  25336.91670139  .00168677  00000+0  44103-2 0  9997,2 45565  53.0578 139.6046 0008227 127.0654  60.5101 15.37610354  5494
STARLINK-1361,45567,53.0542,0.0001551,15.06388689,546.1720978029552,548.3203516792692,1 45567U 20025AN  25336.82556403  .00000495  00000+0  52141-4 0  9992,2 45567  53.0542 161.4547 0001551  87.5892 272.5275 15.06388689310779
STARLINK-1363,45568,53.0506,0.0006861,15.47357285,419.79318933695504,429.12771355983205,1 45568U 20025AP  25336.91670139  .00202204  00000+0  37979-2 0  9998,2 45568  53.0506 150.0235 0006861 177.9287 232.4749 15.47357285  5943
STARLINK-1366,45569,53.0497,0.0004533,15.44662356,429.28314994022185,435.45755590638146,1 45569U 20025AQ  25336.91670139  .00189786  00000+0  39181-2 0  9995,2 45569  53.0497 149.9141 0004533 184.6706 220.0437 15.44662356  5886
STARLINK-1376,45570,53.0538,0.000143,15.0639075,546.2495791032579,548.2302368989458,1 45570U 20025AR  25336.82188116 -.00000629  00000+0 -23359-4 0  9998,2 45570  53.0538 161.4764 0001430  92.4072 267.7081 15.06390750310762
STARLINK-1320,45572,53.0552,0.0006613,15.4721127,420.38959177493507,429.38727321194983,1 45572U 20025AT  25336.61476374  .00118565  00000+0  22659-2 0  9990,2 45572  53.0552  97.0496 0006613 110.2321 249.9397 15.47211270311677
STARLINK-1321,45573,53.054,0.0001635,15.0639726,546.0876597941251,548.3522515186241,1 45573U 20025AU  25336.80804902 -.00001001  00000+0 -48294-4 0  9997,2 45573  53.0540 151.5378 0001635 132.7834 227.3293 15.06397260310603
STARLINK-1328,45576,53.0442,0.000432,15.81614578,322.97812823559707,328.7703939651883,1 45576U 20025AX  25336.91670139  .00270085  00000+0  12843-2 0  9992,2 45576  53.0442 111.5338 0004320 166.3242 332.0361 15.81614578  5865
STARLINK-1331,45578,53.053,0.0001182,15.06390619,546.4217299033899,548.0588890993549,1 45578U 20025AZ  25336.78593404  .00000066  00000+0  23341-4 0  9995,2 45578  53.0530 151.6356 0001182  90.1283 269.9841 15.06390619310912
STARLINK-1333,45580,53.0536,0.0001377,15.06400425,546.256635057729,548.1638756918601,1 45580U 20025BB  25336.79238985  .00000700  00000+0  65904-4 0  9995,2 45580  53.0536 161.6050 0001377  91.5998 268.5148 15.06400425310762
STARLINK-1335,45581,53.0558,0.0001326,15.06391082,546.3205856156173,548.1571953017665,1 45581U 20025BC  25336.79700510  .00000002  00000+0  19019-4 0  9995,2 45581  53.0558 151.5890 0001326  91.3938 268.7203 15.06391082310901
STARLINK-1337,45582,53.0543,0.0001439,15.06396284,546.22638767012,548.2195062628571,1 45582U 20025BD  25336.75276699  .00000950  00000+0  82663-4 0  9995,2 45582  53.0543 151.7880 0001439  89.4779 270.6374 15.06396284310891
STARLINK-1347,45586,53.0532,0.0007801,15.3648969,451.1675817938367,461.83098132032137,1 45586U 20025BH  25336.70400771  .00115780  00000+0  31642-2 0  9991,2 45586  53.0532 131.2628 0007801 129.0442 231.1255 15.36489690311172
